NORAD_CAT_ID,OBJECT_NAME,OBJECT_TYPE,EPOCH,MEAN_MOTION,ECCENTRICITY,INCLINATION,RA_OF_ASC_NODE,ARG_OF_PERICENTER,MEAN_ANOMALY,BSTAR,MEAN_MOTION_DOT,MEAN_MOTION_DDOT,TLE_LINE0,TLE_LINE1,TLE_LINE2,SEMIMAJOR_AXIS,PERIOD,APOGEE,PERIGEE,DECAYED
53435.0,STARLINK-4542,PAYLOAD,2023-03-09 22:14:33,15.08858426,0.0001214,53.2171,342.9971,117.8051,242.3064,0.0010409,0.00016325,0.0,0 STARLINK-4542,1 53435U 22097AZ  23068.92677584  .00016325  00000-0  10409-2 0  9990,2 53435  53.2171 342.9971 0001214 117.8051 242.3064 15.08858426 33348,6917.824,95.436,540.529,538.849,0.0
53435.0,STARLINK-4542,PAYLOAD,2023-03-10 10:57:38,15.08859116,0.0001205,53.2169,340.6166,53.7477,306.3626,0.00023384,3.438e-05,0.0,0 STARLINK-4542,1 53435U 22097AZ  23069.45669056  .00003438  00000-0  23384-3 0  9992,2 53435  53.2169 340.6166 0001205  53.7477 306.3626 15.08859116 32965,6917.822,95.436,540.521,538.853,0.0
53435.0,STARLINK-4542,PAYLOAD,2023-03-11 02:51:30,15.08813044,0.0001637,53.216,337.6421,54.825,305.2895,0.0014537,0.00022906,0.0,0 STARLINK-4542,1 53435U 22097AZ  23070.11910747  .00022906  00000-0  14537-2 0  9993,2 53435  53.2160 337.6421 0001637  54.8250 305.2895 15.08813044 33064,6917.963,95.439,540.96,538.695,0.0
53435.0,STARLINK-4542,PAYLOAD,2023-03-12 02:42:17,15.08868561,0.0001582,53.2158,333.1814,56.7666,303.3477,0.0014986,0.00023661,0.0,0 STARLINK-4542,1 53435U 22097AZ  23071.11270297  .00023661  00000-0  14986-2 0  9990,2 53435  53.2158 333.1814 0001582  56.7666 303.3477 15.08868561 33215,6917.793,95.436,540.752,538.564,0.0
53435.0,STARLINK-4542,PAYLOAD,2023-03-13 02:33:05,15.08859239,0.0003283,53.2168,328.7191,65.6983,294.4352,0.0014767,0.00023306,0.0,0 STARLINK-4542,1 53435U 22097AZ  23072.10630994  .00023306  00000-0  14767-2 0  9997,2 53435  53.2168 328.7191 0003283  65.6983 294.4352 15.08859239 33365,6917.822,95.436,541.958,537.415,0.0
53435.0,STARLINK-4542,PAYLOAD,2023-03-13 21:37:42,15.0883285,0.0001268,53.2165,325.1503,95.7797,264.334,0.0010255,0.00016067,0.0,0 STARLINK-4542,1 53435U 22097AZ  23072.90119176  .00016067  00000-0  10255-2 0  9993,2 53435  53.2165 325.1503 0001268  95.7797 264.3340 15.08832850 33484,6917.902,95.438,540.644,538.89,0.0
53435.0,STARLINK-4542,PAYLOAD,2023-03-14 02:23:52,15.08837467,0.0001422,53.2166,324.2578,94.4825,265.633,0.0013875,0.00021861,0.0,0 STARLINK-4542,1 53435U 22097AZ  23073.09991330  .00021861  00000-0  13875-2 0  9993,2 53435  53.2166 324.2578 0001422  94.4825 265.6330 15.08837467 33973,6917.888,95.438,540.737,538.769,0.0
53435.0,STARLINK-4542,PAYLOAD,2023-03-15 02:14:38,15.08877924,0.0001557,53.217,319.7965,91.0035,269.1135,0.0012934,0.00020378,0.0,0 STARLINK-4542,1 53435U 22097AZ  23074.09350088  .00020378  00000-0  12934-2 0  9990,2 53435  53.2170 319.7965 0001557  91.0035 269.1135 15.08877924 33662,6917.764,95.435,540.707,538.552,0.0
53435.0,STARLINK-4542,PAYLOAD,2023-03-15 21:19:16,15.08853738,0.0001404,53.2169,316.2292,109.0482,251.0663,0.00037069,5.619e-05,0.0,0 STARLINK-4542,1 53435U 22097AZ  23074.88838002  .00005619  00000-0  37069-3 0  9992,2 53435  53.2169 316.2292 0001404 109.0482 251.0663 15.08853738 34240,6917.838,95.437,540.675,538.732,0.0
53435.0,STARLINK-4542,PAYLOAD,2023-03-16 02:05:25,15.08853111,0.0001224,53.2171,315.3387,72.3078,287.8048,0.00058164,8.984e-05,0.0,0 STARLINK-4542,1 53435U 22097AZ  23075.08710114  .00008984  00000-0  58164-3 0  9995,2 53435  53.2171 315.3387 0001224  72.3078 287.8048 15.08853111 33812,6917.84,95.437,540.552,538.859,0.0
53435.0,STARLINK-4542,PAYLOAD,2023-03-16 22:45:27,15.08813916,9.97e-05,53.216,311.4728,85.9637,274.1469,0.00095668,0.0001496,0.0,0 STARLINK-4542,1 53435U 22097AZ  23075.94823951  .00014960  00000-0  95668-3 0  9995,2 53435  53.2160 311.4728 0000997  85.9637 274.1469 15.08813916 33942,6917.96,95.439,540.515,539.135,0.0
53435.0,STARLINK-4542,PAYLOAD,2023-03-17 08:17:46,15.08832449,0.0001009,53.2158,309.6886,89.0695,271.0412,0.00071213,0.00011061,0.0,0 STARLINK-4542,1 53435U 22097AZ  23076.34568072  .00011061  00000-0  71213-3 0  9999,2 53435  53.2158 309.6886 0001009  89.0695 271.0412 15.08832449 34461,6917.903,95.438,540.466,539.07,0.0
53435.0,STARLINK-4542,PAYLOAD,2023-03-17 21:00:51,15.08851478,9.44e-05,53.2154,307.3097,87.6946,272.4154,0.00089998,0.00014069,0.0,0 STARLINK-4542,1 53435U 22097AZ  23076.87559846  .00014069  00000-0  89998-3 0  9996,2 53435  53.2154 307.3097 0000944  87.6946 272.4154 15.08851478 34085,6917.845,95.437,540.363,539.057,0.0
53435.0,STARLINK-4542,PAYLOAD,2023-03-18 20:51:38,15.08854442,9.95e-05,53.2137,302.8469,81.6294,278.481,0.00031699,4.763e-05,0.0,0 STARLINK-4542,1 53435U 22097AZ  23077.86919300  .00004763  00000-0  31699-3 0  9996,2 53435  53.2137 302.8469 0000995  81.6294 278.4810 15.08854442 34231,6917.836,95.437,540.39,539.013,0.0
53435.0,STARLINK-4542,PAYLOAD,2023-03-18 22:27:01,15.08856164,0.0001049,53.2141,302.5499,78.3988,281.7122,0.00029202,4.365e-05,0.0,0 STARLINK-4542,1 53435U 22097AZ  23077.93543224  .00004365  00000-0  29202-3 0  9997,2 53435  53.2141 302.5499 0001049  78.3988 281.7122 15.08856164 34708,6917.831,95.437,540.422,538.97,0.0
53435.0,STARLINK-4542,PAYLOAD,2023-03-19 00:02:24,15.08858915,0.0001052,53.2143,302.254,90.5995,269.5118,0.00049612,7.621e-05,0.0,0 STARLINK-4542,1 53435U 22097AZ  23078.00167111  .00007621  00000-0  49612-3 0  9998,2 53435  53.2143 302.2540 0001052  90.5995 269.5118 15.08858915 34718,6917.823,95.436,540.415,538.96,0.0
53435.0,STARLINK-4542,PAYLOAD,2023-03-19 20:42:25,15.08844636,0.0001261,53.2147,298.388,85.3701,274.7435,0.0001156,1.553e-05,0.0,0 STARLINK-4542,1 53435U 22097AZ  23078.86279220  .00001553  00000-0  11560-3 0  9996,2 53435  53.2147 298.3880 0001261  85.3701 274.7435 15.08844636 34381,6917.866,95.437,540.604,538.859,0.0
53435.0,STARLINK-4542,PAYLOAD,2023-03-20 07:50:06,15.0886137,0.0001171,53.2149,296.3066,82.5197,277.5928,0.0003832,5.82e-05,0.0,0 STARLINK-4542,1 53435U 22097AZ  23079.32646375  .00005820  00000-0  38320-3 0  9991,2 53435  53.2149 296.3066 0001171  82.5197 277.5928 15.08861370 34455,6917.815,95.436,540.49,538.87,0.0
53435.0,STARLINK-4542,PAYLOAD,2023-03-20 20:33:11,15.08844912,0.000128,53.2158,293.9278,80.9823,279.1314,6.684e-05,7.76e-06,0.0,0 STARLINK-4542,1 53435U 22097AZ  23079.85638787  .00000776  00000-0  66840-4 0  9991,2 53435  53.2158 293.9278 0001280  80.9823 279.1314 15.08844912 34531,6917.865,95.437,540.616,538.845,0.0
53435.0,STARLINK-4542,PAYLOAD,2023-03-20 23:43:58,15.08842762,0.0001272,53.216,293.3346,74.1816,285.9316,4.1434e-05,3.72e-06,0.0,0 STARLINK-4542,1 53435U 22097AZ  23079.98886815  .00000372  00000-0  41434-4 0  9996,2 53435  53.2160 293.3346 0001272  74.1816 285.9316 15.08842762 35014,6917.872,95.437,540.617,538.857,0.0
53435.0,STARLINK-4542,PAYLOAD,2023-03-21 20:23:58,15.08855708,0.0001291,53.2154,289.4675,79.8967,280.2171,0.00026096,3.869e-05,0.0,0 STARLINK-4542,1 53435U 22097AZ  23080.84998290  .00003869  00000-0  26096-3 0  9994,2 53435  53.2154 289.4675 0001291  79.8967 280.2171 15.08855708 35143,6917.832,95.437,540.59,538.804,0.0
53435.0,STARLINK-4542,PAYLOAD,2023-03-21 21:59:21,15.08858382,0.0001322,53.215,289.1705,77.714,282.4,0.00042445,6.477e-05,0.0,0 STARLINK-4542,1 53435U 22097AZ  23080.91622244  .00006477  00000-0  42445-3 0  9999,2 53435  53.2150 289.1705 0001322  77.7140 282.4000 15.08858382 34690,6917.824,95.436,540.604,538.775,0.0
53435.0,STARLINK-4542,PAYLOAD,2023-03-22 20:14:46,15.08842647,0.0001302,53.2143,285.0061,93.7788,266.3353,0.00019228,2.774e-05,0.0,0 STARLINK-4542,1 53435U 22097AZ  23081.84358798  .00002774  00000-0  19228-3 0  9991,2 53435  53.2143 285.0061 0001302  93.7788 266.3353 15.08842647 34831,6917.872,95.437,540.638,538.837,0.0
53435.0,STARLINK-4542,PAYLOAD,2023-03-22 23:25:32,15.08844581,0.0001294,53.2145,284.4111,94.1521,265.9619,0.00026722,3.968e-05,0.0,0 STARLINK-4542,1 53435U 22097AZ  23081.97606769  .00003968  00000-0  26722-3 0  9992,2 53435  53.2145 284.4111 0001294  94.1521 265.9619 15.08844581 35315,6917.866,95.437,540.627,538.836,0.0
53435.0,STARLINK-4542,PAYLOAD,2023-03-23 20:05:33,15.0884308,0.0001279,53.2136,280.5464,90.1471,269.9667,0.0001684,2.393e-05,0.0,0 STARLINK-4542,1 53435U 22097AZ  23082.83719087  .00002393  00000-0  16840-3 0  9997,2 53435  53.2136 280.5464 0001279  90.1471 269.9667 15.08843080 34988,6917.871,95.437,540.621,538.851,0.0
53435.0,STARLINK-4542,PAYLOAD,2023-03-24 00:51:42,15.08853571,0.0001345,53.2144,279.6526,88.6994,271.4152,0.00042752,6.525e-05,0.0,0 STARLINK-4542,1 53435U 22097AZ  23083.03590772  .00006525  00000-0  42752-3 0  9990,2 53435  53.2144 279.6526 0001345  88.6994 271.4152 15.08853571 35019,6917.839,95.437,540.634,538.773,0.0
53435.0,STARLINK-4542,PAYLOAD,2023-03-24 18:20:56,15.08887708,0.0001308,53.2142,276.3816,92.9868,267.1274,0.0013444,0.00021201,0.0,0 STARLINK-4542,1 53435U 22097AZ  23083.76453707  .00021201  00000-0  13444-2 0  9999,2 53435  53.2142 276.3816 0001308  92.9868 267.1274 15.08887708 35128,6917.735,95.435,540.504,538.695,0.0
53435.0,STARLINK-4542,PAYLOAD,2023-03-25 11:50:11,15.08816099,0.0002408,53.2135,273.1111,99.1262,261.0002,-0.0010311,-0.00016651,0.0,0 STARLINK-4542,1 53435U 22097AZ  23084.49318878 -.00016651  00000-0 -10311-2 0  9994,2 53435  53.2135 273.1111 0002408  99.1262 261.0002 15.08816099 35231,6917.953,95.439,541.484,538.153,0.0
53435.0,STARLINK-4542,PAYLOAD,2023-03-25 19:47:08,15.08797641,0.000146,53.2166,271.6266,108.4076,251.7074,-0.00095288,-0.00015403,0.0,0 STARLINK-4542,1 53435U 22097AZ  23084.82440538 -.00015403  00000-0 -95288-3 0  9991,2 53435  53.2166 271.6266 0001460 108.4076 251.7074 15.08797641 35284,6918.01,95.44,540.885,538.865,0.0
53435.0,STARLINK-4542,PAYLOAD,2023-03-26 05:19:27,15.08808821,0.0001091,53.2149,269.8394,134.3816,225.7265,-0.00027558,-4.667e-05,0.0,0 STARLINK-4542,1 53435U 22097AZ  23085.22184922 -.00004667  00000-0 -27558-3 0  9993,2 53435  53.2149 269.8394 0001091 134.3816 225.7265 15.08808821 35349,6917.976,95.44,540.595,539.086,0.0
